[{"OBJECT_NAME":"STARLINK-5018","OBJECT_ID":"2022-119AV","EPOCH":"2026-03-09T22:00:04.282272","MEAN_MOTION":15.08835009,"ECCENTRICITY":0.00013169,"INCLINATION":53.2174,"RA_OF_ASC_NODE":313.4778,"ARG_OF_PERICENTER":87.5613,"MEAN_ANOMALY":272.553,"EPHEMERIS_TYPE":0,"CLASSIFICATION_TYPE":"U","NORAD_CAT_ID":53929,"ELEMENT_SET_NO":999,"REV_AT_EPOCH":19185,"BSTAR":-6.9303324e-5,"MEAN_MOTION_DOT":-1.391e-5,"MEAN_MOTION_DDOT":0},{"OBJECT_NAME":"CZ-4B DEB","OBJECT_ID":"2004-035K","EPOCH":"2026-03-08T06:51:30.377664","MEAN_MOTION":15.09293825,"ECCENTRICITY":0.00031468,"INCLINATION":97.5843,"RA_OF_ASC_NODE":91.2716,"ARG_OF_PERICENTER":107.6302,"MEAN_ANOMALY":252.527,"EPHEMERIS_TYPE":0,"CLASSIFICATION_TYPE":"U","NORAD_CAT_ID":29043,"ELEMENT_SET_NO":999,"REV_AT_EPOCH":10418,"BSTAR":0.00031897975,"MEAN_MOTION_DOT":5.021e-5,"MEAN_MOTION_DDOT":0}]
